start=new Date('2022-05-30T00:00:00.000Z').valueOf();
sats=[{"ARG_OF_PERICENTER":"62.6925","EPHEMERIS_TYPE":"0","TLE_LINE1":"1 51773U 22017F   22149.91667824 -.00019505  00000-0 -12112-2 0  9997","REV_AT_EPOCH":"1576","MEAN_MOTION":"15.08824704","CLASSIFICATION_TYPE":"U","DECAY_DATE":null,"MEAN_MOTION_DOT":"-0.00019505","ECCENTRICITY":"0.00016590","RCS_SIZE":"LARGE","MEAN_ELEMENT_THEORY":"SGP4","OBJECT_ID":"2022-017F","PERIAPSIS":"538.644","TIME_SYSTEM":"UTC","LAUNCH_DATE":"2022-02-25","RA_OF_ASC_NODE":"53.1626","APOAPSIS":"540.940","OBJECT_NAME":"STARLINK-3624","MEAN_ANOMALY":"53.3959","INCLINATION":"53.2140","CENTER_NAME":"EARTH","SEMIMAJOR_AXIS":"6917.927","TLE_LINE2":"2 51773  53.2140  53.1626 0001659  62.6925  53.3959 15.08824704 15766","EPOCH":"2022-05-29T22:00:00.999936","BSTAR":"-0.00121120000000","GP_ID":"204865116","FILE":"3471213","SITE":"AFWTR","NORAD_CAT_ID":"51773","REF_FRAME":"TEME","COUNTRY_CODE":"US","OBJECT_TYPE":"PAYLOAD","PERIOD":"95.439","MEAN_MOTION_DDOT":"0.0000000000000","ELEMENT_SET_NO":"999"},{"MEAN_MOTION":"15.08806623","CLASSIFICATION_TYPE":"U","ARG_OF_PERICENTER":"56.6768","EPHEMERIS_TYPE":"0","REV_AT_EPOCH":"1577","TLE_LINE1":"1 51774U 22017G   22149.91667824 -.00016188  00000-0 -10022-2 0  9990","PERIAPSIS":"538.785","TIME_SYSTEM":"UTC","LAUNCH_DATE":"2022-02-25","DECAY_DATE":null,"MEAN_MOTION_DOT":"-0.00016188","RCS_SIZE":"LARGE","ECCENTRICITY":"0.00015360","MEAN_ELEMENT_THEORY":"SGP4","OBJECT_ID":"2022-017G","INCLINATION":"53.2141","SEMIMAJOR_AXIS":"6917.982","CENTER_NAME":"EARTH","RA_OF_ASC_NODE":"53.1641","APOAPSIS":"540.910","OBJECT_NAME":"STARLINK-3629","MEAN_ANOMALY":"139.4326","NORAD_CAT_ID":"51774","REF_FRAME":"TEME","OBJECT_TYPE":"PAYLOAD","COUNTRY_CODE":"US","MEAN_MOTION_DDOT":"0.0000000000000","PERIOD":"95.440","ELEMENT_SET_NO":"999","TLE_LINE2":"2 51774  53.2141  53.1641 0001536  56.6768 139.4326 15.08806623 15772","BSTAR":"-0.00100220000000","EPOCH":"2022-05-29T22:00:00.999936","FILE":"3471213","GP_ID":"204865109","SITE":"AFWTR"},{"CLASSIFICATION_TYPE":"U","MEAN_MOTION":"15.08839077","TLE_LINE1":"1 51775U 22017H   22149.89166171 -.00003107  00000-0 -17720-3 0  9997","REV_AT_EPOCH":"1430","ARG_OF_PERICENTER":"69.5547","EPHEMERIS_TYPE":"0","LAUNCH_DATE":"2022-02-25","PERIAPSIS":"538.453","TIME_SYSTEM":"UTC","OBJECT_ID":"2022-017H","RCS_SIZE":"LARGE","ECCENTRICITY":"0.00018720","MEAN_ELEMENT_THEORY":"SGP4","MEAN_MOTION_DOT":"-0.00003107","DECAY_DATE":null,"CENTER_NAME":"EARTH","SEMIMAJOR_AXIS":"6917.883","INCLINATION":"53.2135","APOAPSIS":"541.043","MEAN_ANOMALY":"290.5646","OBJECT_NAME":"STARLINK-3620","RA_OF_ASC_NODE":"53.2751","ELEMENT_SET_NO":"999","REF_FRAME":"TEME","NORAD_CAT_ID":"51775","COUNTRY_CODE":"US","MEAN_MOTION_DDOT":"0.0000000000000","OBJECT_TYPE":"PAYLOAD","PERIOD":"95.438","FILE":"3471362","GP_ID":"204892619","SITE":"AFWTR","EPOCH":"2022-05-29T21:23:59.571744","BSTAR":"-0.00017720000000","TLE_LINE2":"2 51775  53.2135  53.2751 0001872  69.5547 290.5646 15.08839077 14301"},{"PERIAPSIS":"538.597","TIME_SYSTEM":"UTC","LAUNCH_DATE":"2022-02-25","MEAN_MOTION_DOT":"-0.00004029","DECAY_DATE":null,"OBJECT_ID":"2022-017J","RCS_SIZE":"LARGE","ECCENTRICITY":"0.00016880","MEAN_ELEMENT_THEORY":"SGP4","CLASSIFICATION_TYPE":"U","MEAN_MOTION":"15.08833802","ARG_OF_PERICENTER":"56.4537","EPHEMERIS_TYPE":"0","TLE_LINE1":"1 51776U 22017J   22149.87695304 -.00004029  00000-0 -23523-3 0  9993","REV_AT_EPOCH":"1426","NORAD_CAT_ID":"51776","REF_FRAME":"TEME","OBJECT_TYPE":"PAYLOAD","COUNTRY_CODE":"US","PERIOD":"95.438","MEAN_MOTION_DDOT":"0.0000000000000","ELEMENT_SET_NO":"999","EPOCH":"2022-05-29T21:02:48.742656","BSTAR":"-0.00023523000000","TLE_LINE2":"2 51776  53.2155  53.3409 0001688  56.4537 303.6616 15.08833802 14262","FILE":"3471362","GP_ID":"204892866","SITE":"AFWTR","CENTER_NAME":"EARTH","SEMIMAJOR_AXIS":"6917.899","INCLINATION":"53.2155","APOAPSIS":"540.932","MEAN_ANOMALY":"303.6616","OBJECT_NAME":"STARLINK-3608","RA_OF_ASC_NODE":"53.3409"},{"MEAN_MOTION":"15.08837877","CLASSIFICATION_TYPE":"U","EPHEMERIS_TYPE":"0","ARG_OF_PERICENTER":"57.1883","REV_AT_EPOCH":"1577","TLE_LINE1":"1 51777U 22017K   22149.91667824 -.00053859  00000-0 -33916-2 0  9996","PERIAPSIS":"538.678","TIME_SYSTEM":"UTC","LAUNCH_DATE":"2022-02-25","DECAY_DATE":null,"MEAN_MOTION_DOT":"-0.00053859","RCS_SIZE":"LARGE","ECCENTRICITY":"0.00015530","MEAN_ELEMENT_THEORY":"SGP4","OBJECT_ID":"2022-017K","INCLINATION":"53.2134","CENTER_NAME":"EARTH","SEMIMAJOR_AXIS":"6917.887","RA_OF_ASC_NODE":"53.1642","APOAPSIS":"540.826","OBJECT_NAME":"STARLINK-3625","MEAN_ANOMALY":"118.7881","REF_FRAME":"TEME","NORAD_CAT_ID":"51777","MEAN_MOTION_DDOT":"0.0000000000000","COUNTRY_CODE":"US","OBJECT_TYPE":"PAYLOAD","PERIOD":"95.438","ELEMENT_SET_NO":"999","TLE_LINE2":"2 51777  53.2134  53.1642 0001553  57.1883 118.7881 15.08837877 15772","BSTAR":"-0.00339160000000","EPOCH":"2022-05-29T22:00:00.999936","FILE":"3471213","GP_ID":"204865113","SITE":"AFWTR"},{"ARG_OF_PERICENTER":"65.4512","EPHEMERIS_TYPE":"0","REV_AT_EPOCH":"1423","TLE_LINE1":"1 51778U 22017L   22149.91881224 -.00210045  00000-0 -59208-2 0  9993","MEAN_MOTION":"15.36728443","CLASSIFICATION_TYPE":"U","DECAY_DATE":null,"MEAN_MOTION_DOT":"-0.00210045","MEAN_ELEMENT_THEORY":"SGP4","ECCENTRICITY":"0.00012560","RCS_SIZE":"LARGE","OBJECT_ID":"2022-017L","TIME_SYSTEM":"UTC","PERIAPSIS":"454.935","LAUNCH_DATE":"2022-02-25","RA_OF_ASC_NODE":"44.9018","MEAN_ANOMALY":"294.6623","OBJECT_NAME":"STARLINK-3615","APOAPSIS":"456.652","INCLINATION":"53.2160","CENTER_NAME":"EARTH","SEMIMAJOR_AXIS":"6833.928","TLE_LINE2":"2 51778  53.2160  44.9018 0001256  65.4512 294.6623 15.36728443 14235","EPOCH":"2022-05-29T22:03:05.377536","BSTAR":"-0.00592080000000","SITE":"AFWTR","FILE":"3471362","GP_ID":"204892370","COUNTRY_CODE":"US","MEAN_MOTION_DDOT":"0.0000000000000","OBJECT_TYPE":"PAYLOAD","PERIOD":"93.706","NORAD_CAT_ID":"51778","REF_FRAME":"TEME","ELEMENT_SET_NO":"999"},{"SITE":"AFWTR","FILE":"3471213","GP_ID":"204864797","EPOCH":"2022-05-29T22:00:00.999936","BSTAR":"-0.00144120000000","TLE_LINE2":"2 51779  53.2159  53.1499 0001912  53.2072 182.8436 15.08821004 15769","ELEMENT_SET_NO":"999","COUNTRY_CODE":"US","OBJECT_TYPE":"PAYLOAD","PERIOD":"95.439","MEAN_MOTION_DDOT":"0.0000000000000","NORAD_CAT_ID":"51779","REF_FRAME":"TEME","MEAN_ANOMALY":"182.8436","OBJECT_NAME":"STARLINK-3611","APOAPSIS":"541.126","RA_OF_ASC_NODE":"53.1499","CENTER_NAME":"EARTH","SEMIMAJOR_AXIS":"6917.938","INCLINATION":"53.2159","OBJECT_ID":"2022-017M","MEAN_ELEMENT_THEORY":"SGP4","ECCENTRICITY":"0.00019120","RCS_SIZE":"LARGE","MEAN_MOTION_DOT":"-0.00023140","DECAY_DATE":null,"LAUNCH_DATE":"2022-02-25","TIME_SYSTEM":"UTC","PERIAPSIS":"538.481","TLE_LINE1":"1 51779U 22017M   22149.91667824 -.00023140  00000-0 -14412-2 0  9998","REV_AT_EPOCH":"1576","EPHEMERIS_TYPE":"0","ARG_OF_PERICENTER":"53.2072","CLASSIFICATION_TYPE":"U","MEAN_MOTION":"15.08821004"},{"INCLINATION":"53.2205","SEMIMAJOR_AXIS":"6917.868","CENTER_NAME":"EARTH","RA_OF_ASC_NODE":"53.0906","MEAN_ANOMALY":"311.5618","OBJECT_NAME":"STARLINK-3617","APOAPSIS":"541.102","ELEMENT_SET_NO":"999","MEAN_MOTION_DDOT":"0.0000000000000","COUNTRY_CODE":"US","OBJECT_TYPE":"PAYLOAD","PERIOD":"95.437","NORAD_CAT_ID":"51780","REF_FRAME":"TEME","SITE":"AFWTR","FILE":"3471362","GP_ID":"204892366","TLE_LINE2":"2 51780  53.2205  53.0906 0001978  48.5544 311.5618 15.08843923 14124","BSTAR":"-0.00054771000000","EPOCH":"2022-05-29T22:18:23.838912","MEAN_MOTION":"15.08843923","CLASSIFICATION_TYPE":"U","REV_AT_EPOCH":"1412","TLE_LINE1":"1 51780U 22017N   22149.92944258 -.00008996  00000-0 -54771-3 0  9995","ARG_OF_PERICENTER":"48.5544","EPHEMERIS_TYPE":"0","LAUNCH_DATE":"2022-02-25","TIME_SYSTEM":"UTC","PERIAPSIS":"538.365","MEAN_ELEMENT_THEORY":"SGP4","ECCENTRICITY":"0.00019780","RCS_SIZE":"LARGE","OBJECT_ID":"2022-017N","DECAY_DATE":null,"MEAN_MOTION_DOT":"-0.00008996"},{"RA_OF_ASC_NODE":"53.3593","APOAPSIS":"540.780","OBJECT_NAME":"STARLINK-3580","MEAN_ANOMALY":"313.6709","INCLINATION":"53.2200","SEMIMAJOR_AXIS":"6917.658","CENTER_NAME":"EARTH","FILE":"3471362","GP_ID":"204891119","SITE":"AFWTR","TLE_LINE2":"2 51781  53.2200  53.3593 0001817  46.4434 313.6709 15.08912618 14113","EPOCH":"2022-05-29T20:52:11.029440","BSTAR":"-0.00104930000000","ELEMENT_SET_NO":"999","NORAD_CAT_ID":"51781","REF_FRAME":"TEME","COUNTRY_CODE":"US","OBJECT_TYPE":"PAYLOAD","PERIOD":"95.433","MEAN_MOTION_DDOT":"0.0000000000000","TLE_LINE1":"1 51781U 22017P   22149.86957210 -.00016982  00000-0 -10493-2 0  9997","REV_AT_EPOCH":"1411","ARG_OF_PERICENTER":"46.4434","EPHEMERIS_TYPE":"0","MEAN_MOTION":"15.08912618","CLASSIFICATION_TYPE":"U","RCS_SIZE":"LARGE","ECCENTRICITY":"0.00018170","MEAN_ELEMENT_THEORY":"SGP4","OBJECT_ID":"2022-017P","DECAY_DATE":null,"MEAN_MOTION_DOT":"-0.00016982","LAUNCH_DATE":"2022-02-25","PERIAPSIS":"538.266","TIME_SYSTEM":"UTC"},{"LAUNCH_DATE":"2022-02-25","TIME_SYSTEM":"UTC","PERIAPSIS":"538.673","OBJECT_ID":"2022-017Q","MEAN_ELEMENT_THEORY":"SGP4","RCS_SIZE":"LARGE","ECCENTRICITY":"0.00016380","MEAN_MOTION_DOT":"-0.00017799","DECAY_DATE":null,"CLASSIFICATION_TYPE":"U","MEAN_MOTION":"15.08820009","TLE_LINE1":"1 51782U 22017Q   22149.91667824 -.00017799  00000-0 -11036-2 0  9994","REV_AT_EPOCH":"1561","ARG_OF_PERICENTER":"61.7053","EPHEMERIS_TYPE":"0","ELEMENT_SET_NO":"999","COUNTRY_CODE":"US","OBJECT_TYPE":"PAYLOAD","PERIOD":"95.439","MEAN_MOTION_DDOT":"0.0000000000000","NORAD_CAT_ID":"51782","REF_FRAME":"TEME","SITE":"AFWTR","FILE":"3471213","GP_ID":"204865105","EPOCH":"2022-05-29T22:00:00.999936","BSTAR":"-0.00110360000000","TLE_LINE2":"2 51782  53.2159  63.1608 0001638  61.7053  99.3820 15.08820009 15611","CENTER_NAME":"EARTH","SEMIMAJOR_AXIS":"6917.941","INCLINATION":"53.2159","MEAN_ANOMALY":"99.3820","OBJECT_NAME":"STARLINK-3616","APOAPSIS":"540.940","RA_OF_ASC_NODE":"63.1608"}];
